{
  "constellation": "oneweb",
  "timestamp": "2025-07-21T05:06:13.717346+00:00",
  "satellite_count": 651,
  "data": [
    {
      "satellite_name": "ONEWEB-0399",
      "catalog_number": 50479,
      "epoch_year": 2025,
      "epoch_day": 201.38289694,
      "first_derivative": 8.4e-07,
      "second_derivative": 0.0,
      "drag_term": 0.0,
      "inclination": 87.8817,
      "right_ascension": 87.208,
      "eccentricity": 0.0001711,
      "argument_of_perigee": 89.1697,
      "mean_anomaly": 270.9627,
      "mean_motion": 13.11414535,
      "revolution_number": 17211,
      "line1": "1 50479U 21132L   25201.38289694  .00000084  00000+0  20000-3 0  9999",
      "line2": "2 50479  87.8817  87.2080 0001711  89.1697 270.9627 13.11414535172114",
      "last_updated": "2025-07-21T05:06:13.714543+00:00",
      "constellation": "oneweb"
    },
    {
      "satellite_name": "ONEWEB-0400",
      "catalog_number": 50480,
      "epoch_year": 2025,
      "epoch_day": 201.80783832,
      "first_derivative": 9e-07,
      "second_derivative": 0.0,
      "drag_term": 0.0,
      "inclination": 87.9122,
      "right_ascension": 41.2755,
      "eccentricity": 0.0001738,
      "argument_of_perigee": 80.1986,
      "mean_anomaly": 279.9343,
      "mean_motion": 13.18684277,
      "revolution_number": 17921,
      "line1": "1 50480U 21132M   25201.80783832  .00000090  00000+0  19662-3 0  9990",
      "line2": "2 50480  87.9122  41.2755 0001738  80.1986 279.9343 13.18684277179217",
      "last_updated": "2025-07-21T05:06:13.714545+00:00",
      "constellation": "oneweb"
    },
    {
      "satellite_name": "ONEWEB-0401",
      "catalog_number": 50481,
      "epoch_year": 2025,
      "epoch_day": 201.85237669,
      "first_derivative": 5.7e-07,
      "second_derivative": 0.0,
      "drag_term": 0.0,
      "inclination": 87.9122,
      "right_ascension": 41.262,
      "eccentricity": 0.0002002,
      "argument_of_perigee": 91.7934,
      "mean_anomaly": 268.3427,
      "mean_motion": 13.18686362,
      "revolution_number": 17922,
      "line1": "1 50481U 21132N   25201.85237669  .00000057  00000+0  11222-3 0  9995",
      "line2": "2 50481  87.9122  41.2620 0002002  91.7934 268.3427 13.18686362179228",
      "last_updated": "2025-07-21T05:06:13.714547+00:00",
      "constellation": "oneweb"
    },
    {
      "satellite_name": "ONEWEB-0402",
      "catalog_number": 50482,
      "epoch_year": 2025,
      "epoch_day": 201.51258109,
      "first_derivative": 3.2e-07,
      "second_derivative": 0.0,
      "drag_term": 0.0,
      "inclination": 87.9121,
      "right_ascension": 41.3236,
      "eccentricity": 0.0002293,
      "argument_of_perigee": 98.0752,
      "mean_anomaly": 262.064,
      "mean_motion": 13.18685038,
      "revolution_number": 17920,
      "line1": "1 50482U 21132P   25201.51258109  .00000032  00000+0  49280-4 0  9990",
      "line2": "2 50482  87.9121  41.3236 0002293  98.0752 262.0640 13.18685038179207",
      "last_updated": "2025-07-21T05:06:13.714549+00:00",
      "constellation": "oneweb"
    },
    {
      "satellite_name": "ONEWEB-0403",
      "catalog_number": 50483,
      "epoch_year": 2025,
      "epoch_day": 201.53733446,
      "first_derivative": -1.3e-07,
      "second_derivative": 0.0,
      "drag_term": -6.672500000000001e-05,
      "inclination": 87.9123,
      "right_ascension": 41.337,
      "eccentricity": 0.0001694,
      "argument_of_perigee": 87.963,
      "mean_anomaly": 272.1696,
      "mean_motion": 13.1868571,
      "revolution_number": 17788,
      "line1": "1 50483U 21132Q   25201.53733446 -.00000013  00000+0 -66725-4 0  9999",
      "line2": "2 50483  87.9123  41.3370 0001694  87.9630 272.1696 13.18685710177887",
      "last_updated": "2025-07-21T05:06:13.714551+00:00",
      "constellation": "oneweb"
    },
    {
      "satellite_name": "ONEWEB-0404",
      "catalog_number": 50484,
      "epoch_year": 2025,
      "epoch_day": 201.44055521,
      "first_derivative": 5.57e-06,
      "second_derivative": 0.0,
      "drag_term": 0.0,
      "inclination": 87.8824,
      "right_ascension": 87.2001,
      "eccentricity": 0.0001467,
      "argument_of_perigee": 82.2745,
      "mean_anomaly": 277.855,
      "mean_motion": 13.11416744,
      "revolution_number": 17221,
      "line1": "1 50484U 21132R   25201.44055521  .00000557  00000+0  15356-2 0  9994",
      "line2": "2 50484  87.8824  87.2001 0001467  82.2745 277.8550 13.11416744172213",
      "last_updated": "2025-07-21T05:06:13.714554+00:00",
      "constellation": "oneweb"
    },
    {
      "satellite_name": "ONEWEB-0405",
      "catalog_number": 50485,
      "epoch_year": 2025,
      "epoch_day": 201.47628731,
      "first_derivative": 1.8e-07,
      "second_derivative": 0.0,
      "drag_term": 0.0,
      "inclination": 87.9121,
      "right_ascension": 41.3361,
      "eccentricity": 0.0001972,
      "argument_of_perigee": 95.4823,
      "mean_anomaly": 264.6534,
      "mean_motion": 13.18686608,
      "revolution_number": 17827,
      "line1": "1 50485U 21132S   25201.47628731  .00000018  00000+0  12104-4 0  9999",
      "line2": "2 50485  87.9121  41.3361 0001972  95.4823 264.6534 13.18686608178272",
      "last_updated": "2025-07-21T05:06:13.714556+00:00",
      "constellation": "oneweb"
    },
    {
      "satellite_name": "ONEWEB-0406",
      "catalog_number": 50486,
      "epoch_year": 2025,
      "epoch_day": 201.84578697,
      "first_derivative": 3.2e-07,
      "second_derivative": 0.0,
      "drag_term": 0.0,
      "inclination": 87.9124,
      "right_ascension": 41.2846,
      "eccentricity": 0.0001267,
      "argument_of_perigee": 81.7289,
      "mean_anomaly": 278.3987,
      "mean_motion": 13.18686453,
      "revolution_number": 17924,
      "line1": "1 50486U 21132T   25201.84578697  .00000032  00000+0  48553-4 0  9999",
      "line2": "2 50486  87.9124  41.2846 0001267  81.7289 278.3987 13.18686453179244",
      "last_updated": "2025-07-21T05:06:13.714558+00:00",
      "constellation": "oneweb"
    },
    {
      "satellite_name": "ONEWEB-0407",
      "catalog_number": 50487,
      "epoch_year": 2025,
      "epoch_day": 201.45979395,
      "first_derivative": 3.7e-07,
      "second_derivative": 0.0,
      "drag_term": 0.0,
      "inclination": 87.9121,
      "right_ascension": 41.3468,
      "eccentricity": 0.0001827,
      "argument_of_perigee": 92.041,
      "mean_anomaly": 268.0931,
      "mean_motion": 13.18684519,
      "revolution_number": 17784,
      "line1": "1 50487U 21132U   25201.45979395  .00000037  00000+0  60712-4 0  9993",
      "line2": "2 50487  87.9121  41.3468 0001827  92.0410 268.0931 13.18684519177846",
      "last_updated": "2025-07-21T05:06:13.714560+00:00",
      "constellation": "oneweb"
    },
    {
      "satellite_name": "ONEWEB-0409",
      "catalog_number": 50488,
      "epoch_year": 2025,
      "epoch_day": 201.43886686,
      "first_derivative": 5.23e-06,
      "second_derivative": 0.0,
      "drag_term": 0.0,
      "inclination": 87.8816,
      "right_ascension": 87.1624,
      "eccentricity": 0.0001527,
      "argument_of_perigee": 74.0843,
      "mean_anomaly": 286.0453,
      "mean_motion": 13.11417043,
      "revolution_number": 17210,
      "line1": "1 50488U 21132V   25201.43886686  .00000523  00000+0  14389-2 0  9999",
      "line2": "2 50488  87.8816  87.1624 0001527  74.0843 286.0453 13.11417043172108",
      "last_updated": "2025-07-21T05:06:13.714563+00:00",
      "constellation": "oneweb"
    },
    {
      "satellite_name": "ONEWEB-0412",
      "catalog_number": 50489,
      "epoch_year": 2025,
      "epoch_day": 201.52412638,
      "first_derivative": 7.4e-07,
      "second_derivative": 0.0,
      "drag_term": 0.0,
      "inclination": 87.9118,
      "right_ascension": 41.3474,
      "eccentricity": 0.000208,
      "argument_of_perigee": 95.3408,
      "mean_anomaly": 264.7962,
      "mean_motion": 13.18686685,
      "revolution_number": 17794,
      "line1": "1 50489U 21132W   25201.52412638  .00000074  00000+0  15451-3 0  9995",
      "line2": "2 50489  87.9118  41.3474 0002080  95.3408 264.7962 13.18686685177940",
      "last_updated": "2025-07-21T05:06:13.714565+00:00",
      "constellation": "oneweb"
    },
    {
      "satellite_name": "ONEWEB-0413",
      "catalog_number": 50490,
      "epoch_year": 2025,
      "epoch_day": 201.83258923,
      "first_derivative": 6.5e-07,
      "second_derivative": 0.0,
      "drag_term": 0.0,
      "inclination": 87.9122,
      "right_ascension": 41.3009,
      "eccentricity": 0.0002189,
      "argument_of_perigee": 91.1979,
      "mean_anomaly": 268.9404,
      "mean_motion": 13.18687039,
      "revolution_number": 17921,
      "line1": "1 50490U 21132X   25201.83258923  .00000065  00000+0  13090-3 0  9993",
      "line2": "2 50490  87.9122  41.3009 0002189  91.1979 268.9404 13.18687039179211",
      "last_updated": "2025-07-21T05:06:13.714567+00:00",
      "constellation": "oneweb"
    },
    {
      "satellite_name": "ONEWEB-0414",
      "catalog_number": 50491,
      "epoch_year": 2025,
      "epoch_day": 201.51422231,
      "first_derivative": 8.6e-07,
      "second_derivative": 0.0,
      "drag_term": 0.0,
      "inclination": 87.912,
      "right_ascension": 41.3253,
      "eccentricity": 0.0001852,
      "argument_of_perigee": 95.1052,
      "mean_anomaly": 265.0292,
      "mean_motion": 13.18686332,
      "revolution_number": 17920,
      "line1": "1 50491U 21132Y   25201.51422231  .00000086  00000+0  18661-3 0  9996",
      "line2": "2 50491  87.9120  41.3253 0001852  95.1052 265.0292 13.18686332179200",
      "last_updated": "2025-07-21T05:06:13.714569+00:00",
      "constellation": "oneweb"
    }
  ]
}